IRIDIUM 39 [-]          
1 25042U 97069D   23292.50719164  .00001496  00000+0  40151-3 0  9998
2 25042  86.3871 110.9709 0018829 164.1982 195.9813 14.47425151361419
IRIDIUM 38 [-]          
1 25043U 97069E   23292.51932339  .00000790  00000+0  26066-3 0  9996
2 25043  86.3935 128.2102 0001413  13.5939 346.5296 14.36921467358807
IRIDIUM 42 [-]          
1 25077U 97077A   23292.49577435  .00000732  00000+0  24929-3 0  9993
2 25077  86.3948 133.6499 0001573  73.3736 286.7632 14.35234710354142
IRIDIUM 44 [-]          
1 25078U 97077B   23292.47115666  .00000892  00000+0  28281-3 0  9998
2 25078  86.3913 117.2148 0001564 148.0657 212.0636 14.39025009356417
IRIDIUM 45 [-]          
1 25104U 97082A   23292.16225763  .00014263  00000+0  91222-3 0  9992
2 25104  86.3771 335.2275 0180127  35.9609 325.3584 14.95967283360591
IRIDIUM 51 [-]          
1 25262U 98018A   23292.17967282  .00015415  00000+0  85410-3 0  9999
2 25262  86.3963 345.7357 0163904 350.3509   9.4584 15.02840500355194
